IRIDIUM 63              
1 25286U 98021B   25167.27400420  .00000364  00000+0  11716-3 0  9994
2 25286  86.3975  82.5159 0002060  83.1334 277.0098 14.36546327423983
IRIDIUM 69              
1 25319U 98026A   25167.49777242  .00000457  00000+0  13620-3 0  9998
2 25319  86.3970  95.7150 0004050  55.0812 305.0768 14.40968931422969
IRIDIUM 71              
1 25320U 98026B   25167.50469397  .00000397  00000+0  11686-3 0  9994
2 25320  86.3969  90.4023 0004381  86.6686 273.5015 14.41158327423490
IRIDIUM 73              
1 25344U 98032C   25167.37258793  .00000462  00000+0  10986-3 0  9993
2 25344  86.4414  47.1636 0002366  69.9397 290.2063 14.51715676430444
IRIDIUM 82              
1 25467U 98051A   25167.30913910  .00017312  00000+0  49719-3 0  9990
2 25467  86.3668 110.1703 0081783 301.0557  58.2682 15.32341926423820
